[{"_key":"22648","text":"COSMOS 2247\r\n1 22648U 93030C   16318.49495581  .00000021  00000-0  57220-4 0  9994\r\n2 22648  82.5830  34.3596 0007925 330.4558 162.7982 12.63182890 84053"},{"_key":"22649","text":"COSMOS 2248\r\n1 22649U 93030D   16317.72446966  .00000016  00000-0  29860-4 0  9996\r\n2 22649  82.5822  31.5180 0008953 329.6335  30.4237 12.63439654 84178"},{"_key":"22650","text":"COSMOS 2249\r\n1 22650U 93030E   16318.44489234  .00000011  00000-0  24273-5 0  9992\r\n2 22650  82.5885  39.6294 0007302 332.1742 147.5152 12.63105409 83995"},{"_key":"22651","text":"COSMOS 2250\r\n1 22651U 93030F   16318.51313275  .00000020  00000-0  52152-4 0  9998\r\n2 22651  82.5872  37.8201 0009064 320.4613  91.1855 12.63067653 84021"},{"_key":"22652","text":"SL-14 R/B\r\n1 22652U 93030G   16318.51319308  .00000016  00000-0  30589-4 0  9997\r\n2 22652  82.5906  39.9963 0007533 333.2045 159.9200 12.63139247 84057"},{"_key":"22653","text":"ASTRA 1C\r\n1 22653U 93031A   16318.07281336 -.00000231  00000-0  00000+0 0  9999\r\n2 22653   8.1043  48.4316 0006221 207.0319 148.2874  0.98842068 80833"},{"_key":"22654","text":"ARASENE\r\n1 22654U 93031B   16317.64069334 -.00000118  00000-0  00000+0 0  9998\r\n2 22654   2.0130 277.3056 2911342 329.1414 169.0370  1.42205504117573"},{"_key":"22655","text":"ARIANE 42L R/B\r\n1 22655U 93031C   16318.85146567  .00001263  00000-0  60565-3 0  9994\r\n2 22655   5.1561  51.4619 6861037 118.4981 325.3512  2.78925699214969"},{"_key":"22657","text":"NAVSTAR 32 (USA 91)\r\n1 22657U 93032A   16317.99281494 -.00000067  00000-0  00000+0 0  9996\r\n2 22657  54.8337  44.2991 0037652  18.4599 265.6916  1.87697225168144"},{"_key":"22665","text":"SL-16 DEB\r\n1 22665U 92093JA  16319.53461986  .00000272  00000-0  19301-3 0  9994\r\n2 22665  71.0793   6.2804 0070494 358.8555  68.7082 14.04944774209751"},{"_key":"22670","text":"ARIANE 42P+ DEB\r\n1 22670U 92072C   16319.41017920  .00003419  00000-0  80697-3 0  9991\r\n2 22670   6.6673  88.6445 6316117 279.9600  18.6715  3.57203934630597"},{"_key":"22671","text":"MOLNIYA 1-86\r\n1 22671U 93035A   16319.07418418  .00000301  00000-0  25298-3 0  9994\r\n2 22671  63.0467 342.1528 4899097 335.2519   7.5915  5.62484623237408"},{"_key":"22675","text":"COSMOS 2251\r\n1 22675U 93036A   16319.19127477  .00000006  00000-0  11718-4 0  9999\r\n2 22675  74.0396 248.4688 0023987  58.3823 301.9664 14.32486802223252"},{"_key":"22676","text":"SL-8 R/B\r\n1 22676U 93036B   16319.17353280  .00000059  00000-0  30594-4 0  9992\r\n2 22676  74.0430 215.0980 0019948 293.2322  66.6729 14.33904419224521"},{"_key":"22687","text":"COSMOS 2252\r\n1 22687U 93038A   16318.55785729  .00000024  00000-0  71961-4 0  9999\r\n2 22687  82.5794 305.7318 0008209  20.1680  89.6475 12.63241731 78548"},{"_key":"22688","text":"COSMOS 2253\r\n1 22688U 93038B   16318.51381631  .00000041  00000-0  17320-3 0  9997\r\n2 22688  82.5849 326.5933 0011647  22.4072 337.7526 12.61508983 77102"},{"_key":"22689","text":"COSMOS 2254\r\n1 22689U 93038C   16318.87680742  .00000004  00000-0 -33804-4 0  9998\r\n2 22689  82.5783 288.5218 0012358  10.9852  48.0828 12.64829920 80012"},{"_key":"22690","text":"COSMOS 2255\r\n1 22690U 93038D   16318.83270147  .00000022  00000-0  65442-4 0  9992\r\n2 22690  82.5814 306.6130 0006325  30.5645  20.2850 12.63253447 79265"},{"_key":"22691","text":"COSMOS 2256\r\n1 22691U 93038E   16318.48693019  .00000012  00000-0  95672-5 0  9999\r\n2 22691  82.5725 294.1429 0008052  37.1493  89.2573 12.63861929 79720"},{"_key":"22692","text":"COSMOS 2257\r\n1 22692U 93038F   16318.97542575  .00000014  00000-0  21265-4 0  9992\r\n2 22692  82.5757 312.8854 0008351  18.4144 341.7248 12.62185205 78339"},{"_key":"22693","text":"SL-14 R/B\r\n1 22693U 93038G   16318.81707554  .00000018  00000-0  51048-4 0  9992\r\n2 22693  82.5892  31.5795 0045343 230.2677 200.8511 12.54804724 72018"},{"_key":"22694","text":"HGS 4 (GALAXY 4)\r\n1 22694U 93039A   16317.57857782 -.00000090  00000-0  00000+0 0  9993\r\n2 22694  13.9810  25.4195 0017068 215.0691  92.9304  1.00277602 83866"},{"_key":"22698","text":"RADCAL\r\n1 22698U 93041A   16319.19142794  .00000069  00000-0  23207-4 0  9994\r\n2 22698  89.5435 244.3206 0091181 114.7368 246.3347 14.23329453214242"},{"_key":"22699","text":"SCOUT G-1 R/B\r\n1 22699U 93041B   16318.51525496  .00000140  00000-0  51928-4 0  9995\r\n2 22699  89.5430 243.0203 0089793  93.3675 267.7795 14.24859871214551"},{"_key":"22700","text":"NAVSTAR 33 (USA 92)\r\n1 22700U 93042A   16318.48061265 -.00000039  00000-0  00000+0 0  9992\r\n2 22700  55.7315 291.5564 0009532 308.0111 238.4321  1.89431119170800"},{"_key":"22706","text":"SCOUT G-1 DEB\r\n1 22706U 93041C   16318.80442468  .00000362  00000-0  10775-3 0  9993\r\n2 22706  89.2903 346.5358 0027807 325.5202  88.1299 14.41036083225148"},{"_key":"22707","text":"SCOUT G-1 DEB\r\n1 22707U 93041D   16317.79300806 +.00000155 +00000-0 +57736-4 0  9999\r\n2 22707 090.0823 247.0513 0143602 251.7744 106.7774 14.23314554210793"},{"_key":"22723","text":"HISPASAT 1B\r\n1 22723U 93048A   16314.88837765  .00000050  00000-0  00000+0 0  9991\r\n2 22723  10.5971  39.3323 0011453 203.5678 149.8761  0.99725709 84869"},{"_key":"22724","text":"INSAT 2B\r\n1 22724U 93048B   16318.01861973 -.00000051  00000-0  00000+0 0  9991\r\n2 22724  12.7645  31.5894 0016505 148.3346 315.5181  0.99959561 85561"},{"_key":"22725","text":"ARIANE 44L+ R/B\r\n1 22725U 93048C   16319.25968548  .00000869  00000-0  54551-3 0  9995\r\n2 22725   6.9714 302.3460 6981275  27.2390 356.4888  2.62162323219580"},{"_key":"22739","text":"NOAA 13\r\n1 22739U 93050A   16319.36076860  .00000036  00000-0  42194-4 0  9999\r\n2 22739  98.5937  11.2000 0010579  71.3052 288.9268 14.12669448199108"},{"_key":"22744","text":"SL-6 R/B(2)\r\n1 22744U 93051D   16314.04685355  .00000548  00000-0 -10794-1 0  9998\r\n2 22744  65.2176 263.9994 7166904 160.2696 344.1946  2.05601430173163"},{"_key":"22779","text":"NAVSTAR 34 (USA 94)\r\n1 22779U 93054A   16318.42482209 -.00000049  00000-0  00000+0 0  9991\r\n2 22779  55.3951 343.8335 0046088 194.3573 298.1617  1.89129514169835"},{"_key":"22782","text":"METEOR 2-21\r\n1 22782U 93055A   16319.55995664 -.00000003  00000-0 -15791-4 0  9994\r\n2 22782  82.5503 193.9060 0021764 315.4733  90.7521 13.83794635172014"},{"_key":"22783","text":"TEMISAT\r\n1 22783U 93055B   16319.17461667  .00000048  00000-0  29877-4 0  9991\r\n2 22783  82.5525 196.0869 0022055 315.1440  44.7937 13.83678428171926"},{"_key":"22784","text":"SL-14 R/B\r\n1 22784U 93055C   16319.31110410  .00000044  00000-0  26549-4 0  9994\r\n2 22784  82.5517 196.8954 0021363 324.0485 173.0367 13.83416898171812"},{"_key":"22796","text":"ACTS\r\n1 22796U 93058B   16318.51679128 -.00000110  00000-0  00000+0 0  9991\r\n2 22796  13.9162  25.8926 0019758 353.6308 113.8809  1.00273829 91776"},{"_key":"22797","text":"TOS R/B\r\n1 22797U 93058D   16318.05222089  .00000151  00000-0  74121-4 0  9995\r\n2 22797  14.8767 257.9409 7398924 211.4230  67.9355  2.10317403174270"},{"_key":"22801","text":"NOAA 13 DEB\r\n1 22801U 93050C   16318.31359872  .00010520  00000-0  10546-2 0  9993\r\n2 22801  98.9589  48.7013 0002701  75.1798 321.1033 14.91576244221532"},{"_key":"22802","text":"COSMOS 2263\r\n1 22802U 93059A   16318.53438390  .00000186  00000-0  12472-3 0  9998\r\n2 22802  70.9268  54.5479 0024907 199.6717 160.3446 14.13134057194663"},{"_key":"22803","text":"SL-16 R/B\r\n1 22803U 93059B   16319.16464062  .00000076  00000-0  61682-4 0  9990\r\n2 22803  70.9906 342.5345 0017765 345.3427  14.7178 14.16758632197826"},{"_key":"22804","text":"SL-16 DEB\r\n1 22804U 93059C   16318.81635035 -.00000048  00000-0 -53327-5 0  9991\r\n2 22804  70.9745 198.2718 0209770  38.8662  30.6530 13.71266813158902"},{"_key":"22805","text":"SL-16 DEB\r\n1 22805U 93059D   16317.95215471 +.00000054 +00000-0 +92533-4 0  9990\r\n2 22805 070.9733 229.3927 0210912 092.2382 351.7800 13.69998654157471"},{"_key":"22806","text":"SL-16 DEB\r\n1 22806U 93059E   16317.92355362 -.00000053 +00000-0 -90370-5 0  9991\r\n2 22806 071.0184 185.8443 0203600 303.9042 157.1760 13.73146436160121"},{"_key":"22807","text":"SL-16 DEB\r\n1 22807U 93059F   16318.85233376 -.00000024  00000-0  17495-4 0  9998\r\n2 22807  71.0184 218.9639 0207531 354.2029  68.3263 13.71841967159395"},{"_key":"22812","text":"SL-16 DEB\r\n1 22812U 92093JB  16317.91152511  .00000571  00000-0  39954-3 0  9997\r\n2 22812  70.6901  49.0024 0139280  23.4937 337.2453 13.98266681192290"},{"_key":"22816","text":"SL-16 DEB\r\n1 22816U 92093JC  16317.32004189  .00001661  00000-0  78786-3 0  9990\r\n2 22816  71.4641 268.5741 0132609 306.4525 206.9616 14.16390309208964"},{"_key":"22823","text":"SPOT 3\r\n1 22823U 93061A   16318.52159277 -.00000013  00000-0  15385-4 0  9994\r\n2 22823  98.9152 274.2352 0017259 153.7572 206.4481 14.19155648197930"},{"_key":"22824","text":"STELLA\r\n1 22824U 93061B   16319.22971520 -.00000041  00000-0  15769-5 0  9994\r\n2 22824  98.7865 268.5897 0005705 319.5717 178.9017 14.27365832205346"},{"_key":"22825","text":"KITSAT B\r\n1 22825U 93061C   16318.96379535  .00000009  00000-0  20921-4 0  9991\r\n2 22825  98.7806 276.2832 0007449 236.6641 123.3828 14.29976259206640"},{"_key":"22826","text":"POSAT 1\r\n1 22826U 93061D   16317.85488177 +.00000019 +00000-0 +24781-4 0  9991\r\n2 22826 098.7746 275.2720 0008027 230.3283 129.7192 14.30302736206408"},{"_key":"22827","text":"HEALTHSAT 1\r\n1 22827U 93061E   16318.95229324  .00000051  00000-0  36485-4 0  9991\r\n2 22827  98.7837 281.4456 0008593 191.0532 216.8718 14.31179518207238"},{"_key":"22828","text":"ITAMSAT\r\n1 22828U 93061F   16318.87925216  .00000006  00000-0  19574-4 0  9996\r\n2 22828  98.7655 275.1831 0009488 194.3086 165.7829 14.30613242175154"},{"_key":"22829","text":"EYESAT A\r\n1 22829U 93061G   16319.55756632  .00000016  00000-0  23264-4 0  9999\r\n2 22829  98.7693 278.4338 0009569 182.9610 286.2679 14.30948436207379"}]